#dP2021  2 12  0  0  0.00000000      96 __u+U ITR00 FIT  IAC
## 2144 432000.00000000   900.00000000 59257 0.0000000000000
+  125   C01C03C04C05C06C07C08C09C10C11C12C13C14C16C19C20C21
+        C22C23C24C25C26C27C28C29C30C32C33C34C35C36C37C38C39
+        C40C41C42C43C44C45C46C60E01E02E03E04E05E07E08E09E11
+        E12E13E14E15E18E19E21E24E25E26E27E30E31E33E36G01G02
+        G03G04G05G06G07G08G09G10G11G12G13G14G15G16G17G18G19
+        G20G21G22G23G24G25G26G27G28G29G30G31G32J01J02J03R01
+        R02R03R04R05R06R07R08R09R10R11R12R13R14R15R16R17R18
+        R19R20R21R22R23R24  0  0  0  0  0  0  0  0  0  0  0
++        13 13 13 13  9  9 10  9  9  9  9  9  8  9  8  8  8
++         8  8  8  8  8  8  8  8  8  8  8  8  9  9  8 10  9
++         9  8  8  8 10  9  9 14  4  4  4  5  4  5  5  4  5
++         4  4  4  4  5  5  4  4  5  5  4  4  5  5  6  3  4
++         3  4  4  3  4  4  4  4  4  4  4  3  4  4  4  4  4
++         4  4  4  4  3  4  4  4  4  4  4  4  3  9  8  9  7
++         6  6  5  6 13  6  6  6 13  8  6  6  6  6  6  6  6
++         7  6  6  7 13  6  0  0  0  0  0  0  0  0  0  0  0
%c M  cc GPS ccc cccc cccc cccc cccc ccccc ccccc ccccc ccccc
%c cc cc ccc ccc cccc cccc cccc cccc ccccc ccccc ccccc ccccc
%f  0.0000000  0.000000000  0.00000000000  0.000000000000000
%f  0.0000000  0.000000000  0.00000000000  0.000000000000000
%i    0    0    0    0      0      0      0      0         0
%i    0    0    0    0      0      0      0      0         0
/* INFORMATION & ANALYSIS CENTER (IAC)            RAPID DATA
/* S/V CLOCKS ARE ALIGNED TO GNSS TIME                      
/* G:C1WC2W R:C1PC2P E:C1XC5X C:C2IC6I J:C1CC2S             
/* PCV:IGS14_2134 OL/AL:FES2004  NONE     YN ORB:CoN CLK:CoN
*  2021 02 12 20  0  0.00000000
PC01 -34296.528636  24481.684238   -320.161206   -718.365754
PC03 -14882.373020  39453.454894   1236.094292   -462.252610
PC04 -39626.210356  14359.057338   -100.591207   -373.080489
PC05  21864.313822  36041.216107   1385.264709   -743.569547
PC06 -13194.488984  38929.690353  10871.743471     86.047945
PC07 -11387.108018  23888.825496 -32529.885132   -320.161800
PC08 -25022.304847  25398.699312  22309.409107   -915.210105
PC09  -4898.104365  41931.906764  -3596.913702    737.779693
PC10   2995.956029  29764.407694 -29352.039734    -87.565406
PC11 -15624.627370   -489.590916 -23046.056288   -927.168716
PC12  -7323.859528 -19245.322156 -18800.910863    793.743053
PC13  -9728.307740  26636.959625  31217.322031    138.794592
PC14 -22557.583395  -9211.169471  13676.430153    121.223211
PC16 -11394.562265  39677.426192   9224.110955   -693.518822
PC19  19525.471474     99.822993 -19907.284372    725.596360
PC20  22058.713565  15758.902366  -6550.461884   -914.995154
PC21 -11500.665918 -22760.280680 -11336.077490   -835.337457
PC22   5589.288385 -16101.343590 -22097.527856   -877.388034
PC23 -16431.006931  15918.068015 -15977.461680   -876.268023
PC24 -21476.280832  -6736.752604  16462.561690   -759.193619
PC25 -26819.840777   7660.570795   -238.739477   -931.190073
PC26  -4804.138719 -15477.142599  22707.165576    949.420753
PC27    990.810223  25318.880872  11701.892562    482.280543
PC28 -11403.418303  24812.328700  -5738.834211   -110.277858
PC29  16723.210569 -10412.959547  19759.311544    351.556971
PC30  12994.510095  11015.741716  22106.923612    443.935144
PC32  11615.260935  22680.381387  11386.370134   -893.783146
PC33 -19604.007361    -54.023063  19871.823273   -962.901833
PC34 -13326.647008 -10288.260580 -22255.049377   -741.449453
PC35  10715.949598 -25032.647906   6014.984686   -420.956800
PC36  27060.424967  -6832.627916    -68.210098   -757.169794
PC37   3562.018533  15805.386120 -22709.279602   -864.616076
PC38 -22322.859338  27423.477361  22903.795530    129.686862
PC39  -8237.842156  40509.951647   8661.818299     28.401568
PC40   -914.776151  25787.929507 -33300.253767    130.926007
PC41  -5847.830609  15966.527579  22176.877383   -930.195990
PC42 -21969.401809 -16163.256117   5971.985960   -863.736707
PC43 -16908.967972   9841.844093 -19911.471424 999999.999999
PC44  -1786.839765 -25338.524155 -11515.674674     35.460865
PC45  16387.870523 -15890.203723  16068.347748    360.517181
PC46  22118.272650   6025.009184 -15941.565955    408.291038
PC60   7307.630694  41529.107655   -305.786062     -1.047718
PE01    410.185410 -16714.271406  24422.393161  -1044.802636
PE02   -241.350141  16744.688704 -24413.323550    197.952847
PE03   1917.959643  27952.989003   9526.956945   -397.927869
PE04 -14346.561712 -24365.963520   8754.522746   -708.511104
PE05 -11821.940514  15189.301730  22487.687625   -305.082822
PE07  18527.789667   6308.393625 -22201.159290   -500.028776
PE08  14565.164182  24117.469312  -9062.723561   6047.916445
PE09 -18427.380682  -6099.659302  22352.155153   5767.516763
PE11 -21391.653318   4308.988028 -20008.180287   6330.846558
PE12  -8483.420686 -14493.991439 -24363.692111   5359.289332
PE13  21170.510017  -3998.908168  20305.498089    411.962221
PE14 -16776.268144  14864.516435 -21073.503416  -1327.738073
PE15   8499.936098  14408.583482  24433.483379    829.618975
PE18   6618.302752 -24291.773968   8672.357245  -1451.413767
PE19   -299.097119 -27251.969771 -11542.023200    202.221243
PE21  20357.002025  -9020.129778  19505.163009   -648.110400
PE24 -29098.936829  -4721.196162  -2493.561064   -740.262328
PE25 -20486.237578   8923.022991 -19404.768666   -526.307955
PE26  21253.813246 -20299.485683   3531.944069   2155.537462
PE27  29149.439888   4170.092749   3105.387462     31.207520
PE30  20035.893821  15236.943507 -15603.786307   3186.306397
PE31 -20742.792378 -14830.612682  15026.725397   -478.231294
PE33   9162.481602 -24308.192708 -14167.362974   -465.643642
PE36 -21371.649892  20043.974148  -4222.592554    441.482729
PG01   9292.960952 -19335.215204 -15673.126393    762.485058
PG02 -21894.141817  14104.231686  -4602.250259   -576.188815
PG03  -1484.252084 -16446.109630 -20904.053082    -81.316755
PG04   2080.019552 -25886.521339  -5423.341876   -179.771558
PG05 -17646.449587   6920.743483  18530.024176    -33.528011
PG06 -21066.428814   1955.423170 -16025.612553     -3.003270
PG07  -6188.256956 -14518.107527  21650.534890     56.447865
PG08   5953.556548 -22555.648247  12416.900262    -10.065195
PG09  -7157.101582 -24846.849662   5952.531729   -322.281019
PG10  23909.741542  11824.155110   1450.410222    -60.097986
PG11   9541.105277 -24830.074434  -3376.041701    -26.424558
PG12  -3925.006891  14803.922814 -21959.349303     -0.221302
PG13 -12923.330143  14219.606078  18147.782185     96.490963
PG14 -22665.008690 -13601.429766   2644.567304     96.364993
PG15  -3698.815389  23327.308806  11429.132930   -169.851660
PG16  19376.297213  -2983.855643  17898.003765   -279.164356
PG17 -13084.922131 -12740.664697 -18854.327671    393.068832
PG18   8439.295710  12506.575012  21854.378085    346.968469
PG19 -14704.009088  -4113.317383 -22023.937946    -39.346705
PG20  17762.212269  15067.019282  12955.658779    524.725089
PG21  15609.137182 -19664.408712  -7225.789837     95.036301
PG22   7920.444814 -13771.097500 -21072.888083   -680.520620
PG23  17789.008473  16104.322930  11406.790722    118.315065
PG24 -12400.512213  20689.104882 -10902.881344      2.408776
PG25  11494.836187  17771.397243 -16472.335023     79.193757
PG26  24849.319385   2743.481451   9304.507767     43.961303
PG27  12602.295934 -11246.462372  20241.043332    -75.052769
PG28 -22906.291693 -13229.896018    223.112462    616.475226
PG29   4716.091928  25401.221462   6032.788166   -293.758767
PG30 -16896.423700  -6044.441504  19694.134590   -383.758615
PG31  22688.122828  -3658.473461 -13789.326523    -99.698097
PG32  14745.530664  10887.805991 -19184.551753     18.503437
PJ01 -25053.550394  22924.441984  30038.709826   -340.784440
PJ02 -32711.753892  14750.946047 -17639.228055      1.803445
PJ03 -22330.945047  31997.447463 -11259.727338     -0.674896
PR01 -14638.020595 -20898.370913   -126.088733     74.904522
PR02 -15631.535182  -7561.747230  18698.834231    466.765316
PR03  -6879.507426   9197.752455  22821.580341     30.729002
PR04   5758.811242  20452.615310  14145.588339     73.783949
PR05  15066.199005  20449.038396  -2479.588518     66.405640
PR06  15706.727831   6252.717394 -19122.211810    192.634149
PR07   6480.483501  -9655.852885 -22662.763596    -42.418453
PR08  -5774.293101 -20489.055589 -13985.115496    -57.351245
PR09  25319.022479   -725.562688  -2695.249108    -22.054309
PR10  20155.637937  -8107.762140  13416.879310    -66.323422
PR11   2727.622227 -11047.533946  22834.858259      3.446682
PR12 -16192.782483  -7509.861061  18230.186616    204.481491
PR13 -25292.810594    595.231274   3207.093990    -50.631772
PR14 -19480.472238   8323.673412 -14208.396055     60.935576
PR15  -2462.427622  11106.037205 -22815.795860    105.443908
PR16  17261.906153   6913.370246 -17556.810125    -11.230362
PR17 -14127.650296  19023.161362  -9387.612998    399.524233
PR18  -7734.015044  23135.067378   7577.511350     66.433667
PR19   1937.595125  15504.771641  20168.047356   -131.777618
PR20  12716.668610  -3212.032183  21880.607534   -433.235548
PR21  13960.509943 -19672.016901   8332.787683   -187.238323
PR22   7186.655405 -22830.490601  -8682.944407    -97.531466
PR23  -6764.117167  -9223.864976 -22800.045359    365.619101
PR24 -13308.154460   3953.318161 -21374.850392     31.299880
EOF
